NORAD_CAT_ID,OBJECT_NAME,OBJECT_TYPE,EPOCH,MEAN_MOTION,ECCENTRICITY,INCLINATION,RA_OF_ASC_NODE,ARG_OF_PERICENTER,MEAN_ANOMALY,BSTAR,MEAN_MOTION_DOT,MEAN_MOTION_DDOT,TLE_LINE0,TLE_LINE1,TLE_LINE2,SEMIMAJOR_AXIS,PERIOD,APOGEE,PERIGEE,DECAYED
53253.0,STARLINK-4133,PAYLOAD,2023-03-08 18:18:43,15.08848753,8.45e-05,53.216,78.4144,108.9595,251.1489,0.00081012,0.00012632,0.0,0 STARLINK-4133,1 53253U 22086M   23067.76300425  .00012632  00000-0  81012-3 0  9990,2 53253  53.2160  78.4144 0000845 108.9595 251.1489 15.08848753 35286,6917.854,95.437,540.303,539.134,0.0
53253.0,STARLINK-4133,PAYLOAD,2023-03-09 10:12:34,15.08867399,0.0001239,53.2165,75.4406,98.3306,261.7827,0.0015864,0.00025069,0.0,0 STARLINK-4133,1 53253U 22086M   23068.42539992  .00025069  00000-0  15864-2 0  9996,2 53253  53.2165  75.4406 0001239  98.3306 261.7827 15.08867399 35560,6917.797,95.436,540.519,538.805,0.0
53253.0,STARLINK-4133,PAYLOAD,2023-03-10 05:17:12,15.088606,0.0001372,53.2166,71.8714,100.1068,260.0079,0.0014728,0.00023243,0.0,0 STARLINK-4133,1 53253U 22086M   23069.22027892  .00023243  00000-0  14728-2 0  9996,2 53253  53.2166  71.8714 0001372 100.1068 260.0079 15.08860600 35501,6917.817,95.436,540.632,538.733,0.0
53253.0,STARLINK-4133,PAYLOAD,2023-03-10 06:52:35,15.08861497,0.0001322,53.2167,71.5747,79.4188,280.6953,0.0015167,0.00023947,0.0,0 STARLINK-4133,1 53253U 22086M   23069.28651911  .00023947  00000-0  15167-2 0  9996,2 53253  53.2167  71.5747 0001322  79.4188 280.6953 15.08861497 35695,6917.815,95.436,540.594,538.765,0.0
53253.0,STARLINK-4133,PAYLOAD,2023-03-11 06:43:22,15.08850037,0.0001138,53.2177,67.1147,97.7992,262.3129,0.0015879,0.00025081,0.0,0 STARLINK-4133,1 53253U 22086M   23070.28012602  .00025081  00000-0  15879-2 0  9997,2 53253  53.2177  67.1147 0001138  97.7992 262.3129 15.08850037 35669,6917.85,95.437,540.502,538.927,0.0
53253.0,STARLINK-4133,PAYLOAD,2023-03-11 11:29:32,15.08855314,0.000133,53.2172,66.2235,102.9475,257.1666,0.001261,0.00019846,0.0,0 STARLINK-4133,1 53253U 22086M   23070.47884419  .00019846  00000-0  12610-2 0  9993,2 53253  53.2172  66.2235 0001330 102.9475 257.1666 15.08855314 35875,6917.834,95.437,540.619,538.779,0.0
53253.0,STARLINK-4133,PAYLOAD,2023-03-11 22:37:14,15.08824183,0.0001995,53.2176,64.1424,89.5132,270.6089,0.0011052,0.00017337,0.0,0 STARLINK-4133,1 53253U 22086M   23070.94253204  .00017337  00000-0  11052-2 0  9999,2 53253  53.2176  64.1424 0001995  89.5132 270.6089 15.08824183 35940,6917.929,95.439,541.174,538.414,0.0
53253.0,STARLINK-4133,PAYLOAD,2023-03-12 09:44:56,15.08844858,0.0001536,53.2183,62.0606,93.9313,266.1855,0.0013827,0.00021789,0.0,0 STARLINK-4133,1 53253U 22086M   23071.40621268  .00021789  00000-0  13827-2 0  9998,2 53253  53.2183  62.0606 0001536  93.9313 266.1855 15.08844858 36019,6917.866,95.437,540.793,538.668,0.0
53253.0,STARLINK-4133,PAYLOAD,2023-03-13 08:00:20,15.0885986,0.0001659,53.2172,57.8975,87.7946,272.3236,0.00091598,0.00014328,0.0,0 STARLINK-4133,1 53253U 22086M   23072.33356817  .00014328  00000-0  91598-3 0  9999,2 53253  53.2172  57.8975 0001659  87.7946 272.3236 15.08859860 35972,6917.82,95.436,540.832,538.537,0.0
53253.0,STARLINK-4133,PAYLOAD,2023-03-14 04:40:21,15.08845313,0.0001508,53.2174,54.0287,104.2548,255.8612,0.00094009,0.00014707,0.0,0 STARLINK-4133,1 53253U 22086M   23073.19468928  .00014707  00000-0  94009-3 0  9992,2 53253  53.2174  54.0287 0001508 104.2548 255.8612 15.08845313 36103,6917.864,95.437,540.772,538.686,0.0
53253.0,STARLINK-4133,PAYLOAD,2023-03-14 07:51:07,15.08840496,0.0001571,53.2176,53.4331,94.3262,265.791,0.00041312,6.293e-05,0.0,0 STARLINK-4133,1 53253U 22086M   23073.32716995  .00006293  00000-0  41312-3 0  9997,2 53253  53.2176  53.4331 0001571  94.3262 265.7910 15.08840496 36300,6917.879,95.438,540.831,538.657,0.0
53253.0,STARLINK-4133,PAYLOAD,2023-03-14 15:48:03,15.08844292,0.0001461,53.2167,51.9495,92.9679,267.1481,0.00046787,7.167e-05,0.0,0 STARLINK-4133,1 53253U 22086M   23073.65837006  .00007167  00000-0  46787-3 0  9992,2 53253  53.2167  51.9495 0001461  92.9679 267.1481 15.08844292 36170,6917.867,95.437,540.743,538.722,0.0
53253.0,STARLINK-4133,PAYLOAD,2023-03-15 07:41:53,15.08882892,0.0001567,53.2164,48.976,94.3247,265.7924,0.0015626,0.00024698,0.0,0 STARLINK-4133,1 53253U 22086M   23074.32075894  .00024698  00000-0  15626-2 0  9991,2 53253  53.2164  48.9760 0001567  94.3247 265.7924 15.08882892 36277,6917.749,95.435,540.698,538.53,0.0
53253.0,STARLINK-4133,PAYLOAD,2023-03-16 04:21:54,15.08859424,0.0001058,53.2163,45.1114,91.85,268.2613,0.00070395,0.00010939,0.0,0 STARLINK-4133,1 53253U 22086M   23075.18187834  .00010939  00000-0  70395-3 0  9992,2 53253  53.2163  45.1114 0001058  91.8500 268.2613 15.08859424 36400,6917.821,95.436,540.418,538.954,0.0
53253.0,STARLINK-4133,PAYLOAD,2023-03-16 07:32:40,15.08863974,0.0001023,53.2164,44.5166,92.1917,267.9192,0.00096662,0.00015139,0.0,0 STARLINK-4133,1 53253U 22086M   23075.31435704  .00015139  00000-0  96662-3 0  9991,2 53253  53.2164  44.5166 0001023  92.1917 267.9192 15.08863974 36604,6917.807,95.436,540.38,538.964,0.0
53253.0,STARLINK-4133,PAYLOAD,2023-03-16 15:29:36,15.08813152,0.0001477,53.2169,43.029,81.8903,278.2256,0.0017062,0.0002695,0.0,0 STARLINK-4133,1 53253U 22086M   23075.64556430  .00026950  00000-0  17062-2 0  9996,2 53253  53.2169  43.0290 0001477  81.8903 278.2256 15.08813152 36478,6917.962,95.439,540.849,538.806,0.0
53253.0,STARLINK-4133,PAYLOAD,2023-03-17 04:12:42,15.0882896,0.0001107,53.2172,40.6502,100.7987,259.313,0.00082712,0.00012896,0.0,0 STARLINK-4133,1 53253U 22086M   23076.17549007  .00012896  00000-0  82712-3 0  9996,2 53253  53.2172  40.6502 0001107 100.7987 259.3130 15.08828960 36557,6917.914,95.438,540.545,539.013,0.0
53253.0,STARLINK-4133,PAYLOAD,2023-03-17 07:23:28,15.08828548,0.0001178,53.2172,40.0548,101.4775,258.635,0.0010535,0.00016513,0.0,0 STARLINK-4133,1 53253U 22086M   23076.30797187  .00016513  00000-0  10535-2 0  9998,2 53253  53.2172  40.0548 0001178 101.4775 258.6350 15.08828548 36752,6917.915,95.438,540.595,538.965,0.0
53253.0,STARLINK-4133,PAYLOAD,2023-03-18 13:35:48,15.08855226,9.53e-05,53.2169,34.4037,71.1552,288.9544,0.00063671,9.864e-05,0.0,0 STARLINK-4133,1 53253U 22086M   23077.56652837  .00009864  00000-0  63671-3 0  9990,2 53253  53.2169  34.4037 0000953  71.1552 288.9544 15.08855226 36769,6917.834,95.437,540.358,539.04,0.0
53253.0,STARLINK-4133,PAYLOAD,2023-03-19 03:54:16,15.08849826,0.0001284,53.2186,31.7334,83.7985,276.3153,0.00033674,5.077e-05,0.0,0 STARLINK-4133,1 53253U 22086M   23078.16268945  .00005077  00000-0  33674-3 0  9992,2 53253  53.2186  31.7334 0001284  83.7985 276.3153 15.08849826 36851,6917.85,95.437,540.604,538.827,0.0
53253.0,STARLINK-4133,PAYLOAD,2023-03-19 13:26:35,15.088484,7.84e-05,53.2167,29.9449,55.7,304.4067,0.00030114,4.509e-05,0.0,0 STARLINK-4133,1 53253U 22086M   23078.56012797  .00004509  00000-0  30114-3 0  9993,2 53253  53.2167  29.9449 0000784  55.7000 304.4067 15.08848400 37098,6917.855,95.437,540.262,539.177,0.0
53253.0,STARLINK-4133,PAYLOAD,2023-03-20 05:20:26,15.08849208,0.0001074,53.218,26.9722,90.5193,269.5922,0.00027666,4.119e-05,0.0,0 STARLINK-4133,1 53253U 22086M   23079.22252880  .00004119  00000-0  27666-3 0  9991,2 53253  53.2180  26.9722 0001074  90.5193 269.5922 15.08849208 37196,6917.852,95.437,540.46,538.974,0.0
53253.0,STARLINK-4133,PAYLOAD,2023-03-21 06:46:36,15.08854458,0.0001572,53.2185,22.2142,97.9515,262.1656,0.00066671,0.00010343,0.0,0 STARLINK-4133,1 53253U 22086M   23080.28237025  .00010343  00000-0  66671-3 0  9998,2 53253  53.2185  22.2142 0001572  97.9515 262.1656 15.08854458 37172,6917.836,95.437,540.789,538.614,0.0
53253.0,STARLINK-4133,PAYLOAD,2023-03-22 05:02:01,15.08843495,0.0001291,53.2182,18.0499,100.9593,259.1544,0.00056901,8.78e-05,0.0,0 STARLINK-4133,1 53253U 22086M   23081.20973655  .00008780  00000-0  56901-3 0  9994,2 53253  53.2182  18.0499 0001291 100.9593 259.1544 15.08843495 37313,6917.87,95.437,540.628,538.842,0.0
53253.0,STARLINK-4133,PAYLOAD,2023-03-23 04:52:48,15.08857145,0.0001416,53.2182,13.5902,94.8158,265.2996,0.0014068,0.00022183,0.0,0 STARLINK-4133,1 53253U 22086M   23082.20333591  .00022183  00000-0  14068-2 0  9994,2 53253  53.2182  13.5902 0001416  94.8158 265.2996 15.08857145 37461,6917.828,95.436,540.673,538.713,0.0
53253.0,STARLINK-4133,PAYLOAD,2023-03-23 22:22:02,15.08854005,0.0001347,53.2175,10.32,89.5146,270.6001,0.00049988,7.68e-05,0.0,0 STARLINK-4133,1 53253U 22086M   23082.93197294  .00007680  00000-0  49988-3 0  9997,2 53253  53.2175  10.3200 0001347  89.5146 270.6001 15.08854005 37751,6917.838,95.437,540.634,538.771,0.0
53253.0,STARLINK-4133,PAYLOAD,2023-03-24 04:43:34,15.08908106,0.0001297,53.2167,9.1309,72.7729,287.3405,0.0022649,0.0003601,0.0,0 STARLINK-4133,1 53253U 22086M   23083.19692415  .00036010  00000-0  22649-2 0  9994,2 53253  53.2167   9.1309 0001297  72.7729 287.3405 15.08908106 37613,6917.672,95.433,540.434,538.64,0.0
53253.0,STARLINK-4133,PAYLOAD,2023-03-24 22:12:48,15.08847423,0.0001179,53.2174,5.862,76.3016,283.8107,0.0004923,7.557e-05,0.0,0 STARLINK-4133,1 53253U 22086M   23083.92556342  .00007557  00000-0  49230-3 0  9993,2 53253  53.2174   5.8620 0001179  76.3016 283.8107 15.08847423 37904,6917.858,95.437,540.538,538.907,0.0
53253.0,STARLINK-4133,PAYLOAD,2023-03-25 01:23:34,15.088533,0.0001171,53.217,5.2671,85.8872,274.2254,0.00070005,0.00010875,0.0,0 STARLINK-4133,1 53253U 22086M   23084.05804177  .00010875  00000-0  70005-3 0  9991,2 53253  53.2170   5.2671 0001171  85.8872 274.2254 15.08853300 37747,6917.84,95.437,540.515,538.895,0.0
53253.0,STARLINK-4133,PAYLOAD,2023-03-25 06:09:43,15.08871439,0.0001313,53.2176,4.3749,85.4087,274.7055,0.0012503,0.00019684,0.0,0 STARLINK-4133,1 53253U 22086M   23084.25675716  .00019684  00000-0  12503-2 0  9993,2 53253  53.2176   4.3749 0001313  85.4087 274.7055 15.08871439 37771,6917.784,95.436,540.558,538.741,0.0
